NORAD_CAT_ID,OBJECT_NAME,OBJECT_TYPE,EPOCH,MEAN_MOTION,ECCENTRICITY,INCLINATION,RA_OF_ASC_NODE,ARG_OF_PERICENTER,MEAN_ANOMALY,BSTAR,MEAN_MOTION_DOT,MEAN_MOTION_DDOT,TLE_LINE0,TLE_LINE1,TLE_LINE2,SEMIMAJOR_AXIS,PERIOD,APOGEE,PERIGEE,DECAYED
53142.0,STARLINK-4101,PAYLOAD,2024-08-21 07:04:06,15.0885699,0.0001568,53.2172,192.2462,95.7047,264.4124,7.8494e-05,9.62e-06,0.0,0 STARLINK-4101,1 53142U 22083L   24234.29451796  .00000962  00000-0  78494-4 0  9991,2 53142  53.2172 192.2462 0001568  95.7047 264.4124 15.08856990115871,6917.828,95.436,540.778,538.609,0.0
53142.0,STARLINK-4101,PAYLOAD,2024-08-21 21:22:35,15.0884111,0.0001734,53.2153,189.5654,127.0697,233.0453,3.0918e-05,2.04e-06,0.0,0 STARLINK-4101,1 53142U 22083L   24234.89068621  .00000204  00000-0  30918-4 0  9996,2 53142  53.2153 189.5654 0001734 127.0697 233.0453 15.08841110116581,6917.877,95.437,540.942,538.542,0.0
